IRIDIUM 116             
1 43072U 17083C   23341.45655174  .00000321  00000+0  10770-3 0  9998
2 43072  86.3964 347.6597 0002124  89.1454 270.9985 14.34219260311912
IRIDIUM 130             
1 43073U 17083D   23341.49462439  .00000113  00000+0  33405-4 0  9993
2 43073  86.3972 347.8291 0002320  90.6768 269.4694 14.34211395311863
IRIDIUM 151             
1 43074U 17083E   23340.49248781 -.00000523  00000+0 -19389-3 0  9996
2 43074  86.3962 348.0996 0001847  93.7591 266.3816 14.34212479311742
IRIDIUM 134             
1 43075U 17083F   23341.08869516  .00000173  00000+0  54665-4 0  9994
2 43075  86.3967 347.8457 0002352  89.9617 270.1849 14.34211916311794
IRIDIUM 137             
1 43076U 17083G   23340.54323102 -.00000254  00000+0 -97682-4 0  9999
2 43076  86.3965 348.1479 0001879  81.1996 278.9413 14.34212382311788
IRIDIUM 141             
1 43077U 17083H   23340.95550632  .00000351  00000+0  11830-3 0  9991
2 43077  86.3965 347.8584 0002098  94.4304 265.7131 14.34216226311845
IRIDIUM 153             
1 43078U 17083J   23340.48906634  .00000344  00000+0  11590-3 0  9992
2 43078  86.3948 316.5056 0002111  97.0134 263.1302 14.34212579312884
IRIDIUM 131             
1 43079U 17083K   23340.52420053  .00000466  00000+0  15924-3 0  9994
2 43079  86.3970 348.1636 0002103  92.5015 267.6422 14.34212509311710
